[{"OBJECT_NAME":"STARLINK-3241","OBJECT_ID":"2021-115X","EPOCH":"2026-03-09T11:48:35.673120","MEAN_MOTION":15.0884229,"ECCENTRICITY":5.082e-5,"INCLINATION":53.2169,"RA_OF_ASC_NODE":149.9793,"ARG_OF_PERICENTER":60.3093,"MEAN_ANOMALY":299.7949,"EPHEMERIS_TYPE":0,"CLASSIFICATION_TYPE":"U","NORAD_CAT_ID":49745,"ELEMENT_SET_NO":999,"REV_AT_EPOCH":23550,"BSTAR":-1.3707065e-5,"MEAN_MOTION_DOT":-5.06e-6,"MEAN_MOTION_DDOT":0},{"OBJECT_NAME":"CZ-6A DEB","OBJECT_ID":"2024-140KH","EPOCH":"2026-03-09T14:59:57.464160","MEAN_MOTION":15.05079233,"ECCENTRICITY":0.0091207,"INCLINATION":89.0655,"RA_OF_ASC_NODE":284.096,"ARG_OF_PERICENTER":124.4022,"MEAN_ANOMALY":236.5882,"EPHEMERIS_TYPE":0,"CLASSIFICATION_TYPE":"U","NORAD_CAT_ID":60878,"ELEMENT_SET_NO":999,"REV_AT_EPOCH":8457,"BSTAR":0.0027733,"MEAN_MOTION_DOT":0.00043481,"MEAN_MOTION_DDOT":0}]
